*******************************************************************************
JPL/HORIZONS                357 Ninina (A893 CB)           2020-Jun-22 08:55:08
Rec #:     357 (+COV) Soln.date: 2020-Feb-22_15:25:23   # obs: 2971 (1907-2020)
 
IAU76/J2000 helio. ecliptic osc. elements (au, days, deg., period=Julian yrs):
 
  EPOCH=  2455254.5 ! 2010-Feb-27.00 (TDB)         Residual RMS= .25895
   EC= .0735276371750911   QR= 2.920284984210693   TP= 2454718.8078690367
   OM= 137.8805550705772   W=  251.1294173891058   IN= 15.08435272858795
   A= 3.152047596224507    MA= 94.34745520761008   ADIST= 3.38381020823832
   PER= 5.59625            N= .176122528           ANGMOM= .03045795
   DAN= 3.21138            DDN= 3.06218            L= 28.3865744
   B= -14.2559119          MOID= 1.96382999        TP= 2008-Sep-09.3078690367
 
Asteroid physical parameters (km, seconds, rotational period in hours):
   GM= n.a.                RAD= 62.0535            ROTPER= 36.0105
   H= 8.8                  G= .150                 B-V= .715
                           ALBEDO= .037            STYP= CX
 
ASTEROID comments: 
1: soln ref.= JPL#53, OCC=0
2: source=ORB
*******************************************************************************
 
 
*******************************************************************************
Ephemeris / WWW_USER Mon Jun 22 08:55:08 2020 Pasadena, USA      / Horizons
*******************************************************************************
Target body name: 357 Ninina (A893 CB)            {source: JPL#53}
Center body name: Solar System Barycenter (0)     {source: DE431}
Center-site name: BODY CENTER
*******************************************************************************
Start time      : A.D. 1969-Jun-28 00:00:00.0000 TDB
Stop  time      : A.D. 2071-May-04 00:00:00.0000 TDB
Step-size       : 7200 minutes
*******************************************************************************
Center geodetic : 0.00000000,0.00000000,0.0000000 {E-lon(deg),Lat(deg),Alt(km)}
Center cylindric: 0.00000000,0.00000000,0.0000000 {E-lon(deg),Dxy(km),Dz(km)}
Center radii    : (undefined)                                                  
Small perturbers: Yes                             {source: SB431-N16}
Output units    : AU-D
Output type     : GEOMETRIC cartesian states
Output format   : 2 (position and velocity)
Reference frame : Ecliptic of J2000.0
*******************************************************************************
Initial IAU76/J2000 heliocentric ecliptic osculating elements (au, days, deg.):
  EPOCH=  2455254.5 ! 2010-Feb-27.00 (TDB)         Residual RMS= .25895        
   EC= .0735276371750911   QR= 2.920284984210693   TP= 2454718.8078690367      
   OM= 137.8805550705772   W=  251.1294173891058   IN= 15.08435272858795       
  Equivalent ICRF heliocentric equatorial cartesian coordinates (au, au/d):
   X=-2.126441249843460E+00  Y= 2.211305933563114E+00  Z= 8.609656783891479E-01
  VX=-7.385709852273971E-03 VY=-6.108036556327840E-03 VZ= 2.589280734920633E-05
Asteroid physical parameters (km, seconds, rotational period in hours):        
   GM= n.a.                RAD= 62.0535            ROTPER= 36.0105             
   H= 8.8                  G= .150                 B-V= .715                   
                           ALBEDO= .037            STYP= CX                    
*******************************************************************************
            JDTDB,            Calendar Date (TDB),        delta-T,                      X,                      Y,                      Z,                     VX,                     VY,                     VZ,
******************************************************************************************************************************************************************************************************************
$$SOE
2465740.500000000, A.D. 2038-Nov-13 00:00:00.0000,      69.182725, -3.300148259982805E+00,  2.036653217518099E-01,  5.614086823959424E-01, -7.465294142829617E-04, -8.823798228753557E-03,  1.889510616607339E-03,
2465745.500000000, A.D. 2038-Nov-18 00:00:00.0000,      69.182816, -3.303558634621945E+00,  1.595276929891526E-01,  5.708011450420353E-01, -6.176462882087606E-04, -8.830963877225142E-03,  1.867421662911831E-03,
2465750.500000000, A.D. 2038-Nov-23 00:00:00.0000,      69.182918, -3.306324997528770E+00,  1.153585714158945E-01,  5.800823753041533E-01, -4.889279534060730E-04, -8.836396467119334E-03,  1.845018476008888E-03,
2465755.500000000, A.D. 2038-Nov-28 00:00:00.0000,      69.183030, -3.308448220965025E+00,  7.116660553350597E-02,  5.892508141945305E-01, -3.603936970983321E-04, -8.840102730769362E-03,  1.822305923883519E-03,
2465760.500000000, A.D. 2038-Dec-03 00:00:00.0000,      69.183148, -3.309929273108145E+00,  2.696040994875567E-02,  5.983049270154147E-01, -2.320625990566966E-04, -8.842089493036999E-03,  1.799288854547594E-03,
2465765.500000000, A.D. 2038-Dec-08 00:00:00.0000,      69.183272, -3.310769217024978E+00, -1.725143507876742E-02,  6.072432032591614E-01, -1.039535360313759E-04, -8.842363667262088E-03,  1.775972096041426E-03,
2465770.500000000, A.D. 2038-Dec-13 00:00:00.0000,      69.183401, -3.310969209668024E+00, -6.146038406896136E-02,  6.160641565085629E-01,  2.391481372615327E-05, -8.840932251225760E-03,  1.752360456515443E-03,
2465775.500000000, A.D. 2038-Dec-18 00:00:00.0000,      69.183534, -3.310530500893824E+00, -1.056579267333802E-01,  6.247663243376156E-01,  1.515239661577202E-04, -8.837802323157144E-03,  1.728458724310538E-03,
2465780.500000000, A.D. 2038-Dec-23 00:00:00.0000,      69.183673, -3.309454432502195E+00, -1.498355883679273E-01,  6.333482682125896E-01,  2.788556273456248E-04, -8.832981037965587E-03,  1.704271668000569E-03,
2465785.500000000, A.D. 2038-Dec-28 00:00:00.0000,      69.183816, -3.307742437295529E+00, -1.939849302275141E-01,  6.418085733932872E-01,  4.058916895047893E-04, -8.826475623795753E-03,  1.679804036435161E-03,
2465790.500000000, A.D. 2039-Jan-02 00:00:00.0000,      69.183960, -3.305396038158346E+00, -2.380975498841940E-01,  6.501458488346237E-01,  5.326142268716944E-04, -8.818293378846067E-03,  1.655060558829482E-03,
2465795.500000000, A.D. 2039-Jan-07 00:00:00.0000,      69.184102, -3.302416847157714E+00, -2.821650815698483E-01,  6.583587270888075E-01,  6.590054914807897E-04, -8.808441668358872E-03,  1.630045944916286E-03,
2465800.500000000, A.D. 2039-Jan-12 00:00:00.0000,      69.184243, -3.298806564664936E+00, -3.261791965041521E-01,  6.664458642084207E-01,  7.850479088916362E-04, -8.796927921739743E-03,  1.604764885148957E-03,
2465805.500000000, A.D. 2039-Jan-17 00:00:00.0000,      69.184382, -3.294566978498613E+00, -3.701316032084568E-01,  6.744059396506085E-01,  9.107240739124615E-04, -8.783759629806546E-03,  1.579222050942831E-03,
2465810.500000000, A.D. 2039-Jan-22 00:00:00.0000,      69.184521, -3.289699963089054E+00, -4.140140478062663E-01,  6.822376561825571E-01,  1.036016746346090E-03, -8.768944342180160E-03,  1.553422094945862E-03,
2465815.500000000, A.D. 2039-Jan-27 00:00:00.0000,      69.184656, -3.284207478663887E+00, -4.578183143110460E-01,  6.899397397883890E-01,  1.160908846757324E-03, -8.752489664827248E-03,  1.527369651337189E-03,
2465820.500000000, A.D. 2039-Feb-01 00:00:00.0000,      69.184786, -3.278091570454793E+00, -5.015362249021268E-01,  6.975109395776262E-01,  1.285383452259106E-03, -8.734403257756393E-03,  1.501069336153923E-03,
2465825.500000000, A.D. 2039-Feb-06 00:00:00.0000,      69.184908, -3.271354367925270E+00, -5.451596401894676E-01,  7.049500276953558E-01,  1.409423792315149E-03, -8.714692832862376E-03,  1.474525747646901E-03,
2465830.500000000, A.D. 2039-Feb-11 00:00:00.0000,      69.185022, -3.263998084019321E+00, -5.886804594679892E-01,  7.122557992342461E-01,  1.533013244563350E-03, -8.693366151910187E-03,  1.447743466664246E-03,
2465835.500000000, A.D. 2039-Feb-16 00:00:00.0000,      69.185129, -3.256025014430955E+00, -6.320906209621484E-01,  7.194270721485404E-01,  1.656135330684824E-03, -8.670431024645056E-03,  1.420727057054608E-03,
2465840.500000000, A.D. 2039-Feb-21 00:00:00.0000,      69.185230, -3.247437536894128E+00, -6.753821020613848E-01,  7.264626871700811E-01,  1.778773712347172E-03, -8.645895307034468E-03,  1.393481066078962E-03,
2465845.500000000, A.D. 2039-Feb-26 00:00:00.0000,      69.185321, -3.238238110492772E+00, -7.185469195472128E-01,  7.333615077263984E-01,  1.900912187235078E-03, -8.619766899698877E-03,  1.366010024820278E-03,
2465850.500000000, A.D. 2039-Mar-03 00:00:00.0000,      69.185402, -3.228429274990741E+00, -7.615771298130672E-01,  7.401224198609312E-01,  2.022534685003209E-03, -8.592053746585032E-03,  1.338318448644368E-03,
2465855.500000000, A.D. 2039-Mar-08 00:00:00.0000,      69.185471, -3.218013650182478E+00, -8.044648290780044E-01,  7.467443321557961E-01,  2.143625263041920E-03, -8.562763833802490E-03,  1.310410837756524E-03,
2465860.500000000, A.D. 2039-Mar-13 00:00:00.0000,      69.185527, -3.206993935265133E+00, -8.472021535945873E-01,  7.532261756575329E-01,  2.264168102169225E-03, -8.531905188441590E-03,  1.282291677826134E-03,
2465865.500000000, A.D. 2039-Mar-18 00:00:00.0000,      69.185573, -3.195372908231866E+00, -8.897812798507146E-01,  7.595669038059544E-01,  2.384147502494143E-03, -8.499485877342929E-03,  1.253965440587386E-03,
2465870.500000000, A.D. 2039-Mar-23 00:00:00.0000,      69.185609, -3.183153425285222E+00, -9.321944247654268E-01,  7.657654923658327E-01,  2.503547879522843E-03, -8.465514005943886E-03,  1.225436584373998E-03,
2465875.500000000, A.D. 2039-Mar-28 00:00:00.0000,      69.185634, -3.170338420269536E+00, -9.744338458793920E-01,  7.718209393611393E-01,  2.622353760410978E-03, -8.429997717317166E-03,  1.196709554613643E-03,
